{
  "type": "FeatureCollection",
  "features": [
    {
      "type": "Feature",
      "properties": {
        "norad_id": 38208,
        "name": "COSMOS 2251 DEB",
        "group": "cosmos-2251-debris",
        "lat": 49.92024550470858,
        "lon": -142.3558726602914,
        "alt_km": 610.395168856453,
        "timestamp": "2025-12-23T11:34:48.558299+00:00",
        "meta_object_name": "COSMOS 2251 DEB",
        "meta_object_id": "1993-036BSY",
        "meta_epoch": "2025-12-22T10:48:57.448224",
        "meta_mean_motion": 14.84216991,
        "meta_eccentricity": 8.867e-05,
        "meta_inclination": 74.0048,
        "meta_ra_of_asc_node": 59.6241,
        "meta_arg_of_pericenter": 125.3536,
        "meta_mean_anomaly": 250.7467,
        "meta_ephemeris_type": 0,
        "meta_classification_type": "U",
        "meta_norad_cat_id": 38208,
        "meta_element_set_no": 999,
        "meta_rev_at_epoch": 71303,
        "meta_bstar": 0.0024430964,
        "meta_mean_motion_dot": 0.00020478,
        "meta_mean_motion_ddot": 0,
        "tle_line1": "1 38208U 93036BSY 25356.45066491  .00020478  00000+0  24431-2 0  9994",
        "tle_line2": "2 38208  74.0048  59.6241 0000886 125.3536 250.7467 14.84216991713030"
      },
      "geometry": {
        "type": "Point",
        "coordinates": [
          -142.3558726602914,
          49.92024550470858
        ]
      }
    },
    {
      "type": "Feature",
      "properties": {
        "norad_id": 38212,
        "name": "COSMOS 2251 DEB",
        "group": "cosmos-2251-debris",
        "lat": -12.145755090911443,
        "lon": -120.9348098932207,
        "alt_km": 621.1638452360003,
        "timestamp": "2025-12-23T11:34:48.558307+00:00",
        "meta_object_name": "COSMOS 2251 DEB",
        "meta_object_id": "1993-036BTC",
        "meta_epoch": "2025-12-19T04:21:29.490912",
        "meta_mean_motion": 14.77722254,
        "meta_eccentricity": 0.0092064,
        "meta_inclination": 74.0528,
        "meta_ra_of_asc_node": 63.9673,
        "meta_arg_of_pericenter": 129.0689,
        "meta_mean_anomaly": 231.8724,
        "meta_ephemeris_type": 0,
        "meta_classification_type": "U",
        "meta_norad_cat_id": 38212,
        "meta_element_set_no": 999,
        "meta_rev_at_epoch": 81405,
        "meta_bstar": 0.00027193732,
        "meta_mean_motion_dot": 2.056e-05,
        "meta_mean_motion_ddot": 0,
        "tle_line1": "1 38212U 93036BTC 25353.18159133  .00002056  00000+0  27194-3 0  9994",
        "tle_line2": "2 38212  74.0528  63.9673 0092064 129.0689 231.8724 14.77722254814050"
      },
      "geometry": {
        "type": "Point",
        "coordinates": [
          -120.9348098932207,
          -12.145755090911443
        ]
      }
    },
    {
      "type": "Feature",
      "properties": {
        "norad_id": 38220,
        "name": "COSMOS 2251 DEB",
        "group": "cosmos-2251-debris",
        "lat": -37.96557039327905,
        "lon": -120.4118045637933,
        "alt_km": 596.7779719514683,
        "timestamp": "2025-12-23T11:34:48.558316+00:00",
        "meta_object_name": "COSMOS 2251 DEB",
        "meta_object_id": "1993-036BTL",
        "meta_epoch": "2025-12-22T10:29:04.431840",
        "meta_mean_motion": 14.93441795,
        "meta_eccentricity": 0.00057678,
        "meta_inclination": 74.0145,
        "meta_ra_of_asc_node": 48.7677,
        "meta_arg_of_pericenter": 19.2248,
        "meta_mean_anomaly": 340.9152,
        "meta_ephemeris_type": 0,
        "meta_classification_type": "U",
        "meta_norad_cat_id": 38220,
        "meta_element_set_no": 999,
        "meta_rev_at_epoch": 71515,
        "meta_bstar": 0.0032852202,
        "meta_mean_motion_dot": 0.00034688,
        "meta_mean_motion_ddot": 0,
        "tle_line1": "1 38220U 93036BTL 25356.43685685  .00034688  00000+0  32852-2 0  9992",
        "tle_line2": "2 38220  74.0145  48.7677 0005767  19.2248 340.9152 14.93441795715158"
      },
      "geometry": {
        "type": "Point",
        "coordinates": [
          -120.4118045637933,
          -37.96557039327905
        ]
      }
    },
    {
      "type": "Feature",
      "properties": {
        "norad_id": 38479,
        "name": "COSMOS 2251 DEB",
        "group": "cosmos-2251-debris",
        "lat": 28.19258191188951,
        "lon": 173.2921831976753,
        "alt_km": 790.2675568014502,
        "timestamp": "2025-12-23T11:34:48.558325+00:00",
        "meta_object_name": "COSMOS 2251 DEB",
        "meta_object_id": "1993-036BTP",
        "meta_epoch": "2025-12-20T18:25:43.398624",
        "meta_mean_motion": 14.3837654,
        "meta_eccentricity": 0.00841294,
        "meta_inclination": 74.006,
        "meta_ra_of_asc_node": 169.459,
        "meta_arg_of_pericenter": 276.8827,
        "meta_mean_anomaly": 100.487,
        "meta_ephemeris_type": 0,
        "meta_classification_type": "U",
        "meta_norad_cat_id": 38479,
        "meta_element_set_no": 999,
        "meta_rev_at_epoch": 64803,
        "meta_bstar": 0.0014524514,
        "meta_mean_motion_dot": 4.588e-05,
        "meta_mean_motion_ddot": 0,
        "tle_line1": "1 38479U 93036BTP 25354.76786341  .00004588  00000+0  14525-2 0  9996",
        "tle_line2": "2 38479  74.0060 169.4590 0084129 276.8827 100.4870 14.38376540648030"
      },
      "geometry": {
        "type": "Point",
        "coordinates": [
          173.2921831976753,
          28.19258191188951
        ]
      }
    },
    {
      "type": "Feature",
      "properties": {
        "norad_id": 38481,
        "name": "COSMOS 2251 DEB",
        "group": "cosmos-2251-debris",
        "lat": 51.156970652395096,
        "lon": 9.964654711523442,
        "alt_km": 1006.9876538608614,
        "timestamp": "2025-12-23T11:34:48.558334+00:00",
        "meta_object_name": "COSMOS 2251 DEB",
        "meta_object_id": "1993-036BTR",
        "meta_epoch": "2025-12-17T17:37:11.726400",
        "meta_mean_motion": 13.94852214,
        "meta_eccentricity": 0.02348213,
        "meta_inclination": 73.9324,
        "meta_ra_of_asc_node": 358.9239,
        "meta_arg_of_pericenter": 298.2644,
        "meta_mean_anomaly": 59.4964,
        "meta_ephemeris_type": 0,
        "meta_classification_type": "U",
        "meta_norad_cat_id": 38481,
        "meta_element_set_no": 999,
        "meta_rev_at_epoch": 59130,
        "meta_bstar": 0.0012605173,
        "meta_mean_motion_dot": 2.103e-05,
        "meta_mean_motion_ddot": 0,
        "tle_line1": "1 38481U 93036BTR 25351.73416350  .00002103  00000+0  12605-2 0  9991",
        "tle_line2": "2 38481  73.9324 358.9239 0234821 298.2644  59.4964 13.94852214591302"
      },
      "geometry": {
        "type": "Point",
        "coordinates": [
          9.964654711523442,
          51.156970652395096
        ]
      }
    },
    {
      "type": "Feature",
      "properties": {
        "norad_id": 38483,
        "name": "COSMOS 2251 DEB",
        "group": "cosmos-2251-debris",
        "lat": 24.472538423714404,
        "lon": -0.10046337757946955,
        "alt_km": 765.4989103519165,
        "timestamp": "2025-12-23T11:34:48.558343+00:00",
        "meta_object_name": "COSMOS 2251 DEB",
        "meta_object_id": "1993-036BTT",
        "meta_epoch": "2025-12-12T08:16:48.530496",
        "meta_mean_motion": 14.28787654,
        "meta_eccentricity": 0.01107994,
        "meta_inclination": 74.262,
        "meta_ra_of_asc_node": 12.4521,
        "meta_arg_of_pericenter": 118.0167,
        "meta_mean_anomaly": 243.2246,
        "meta_ephemeris_type": 0,
        "meta_classification_type": "U",
        "meta_norad_cat_id": 38483,
        "meta_element_set_no": 999,
        "meta_rev_at_epoch": 63472,
        "meta_bstar": 0.0012977102,
        "meta_mean_motion_dot": 3.471e-05,
        "meta_mean_motion_ddot": 0,
        "tle_line1": "1 38483U 93036BTT 25346.34500614  .00003471  00000+0  12977-2 0  9992",
        "tle_line2": "2 38483  74.2620  12.4521 0110799 118.0167 243.2246 14.28787654634722"
      },
      "geometry": {
        "type": "Point",
        "coordinates": [
          -0.10046337757946955,
          24.472538423714404
        ]
      }
    },
    {
      "type": "Feature",
      "properties": {
        "norad_id": 38486,
        "name": "COSMOS 2251 DEB",
        "group": "cosmos-2251-debris",
        "lat": -64.83207753962988,
        "lon": 145.987777485078,
        "alt_km": 639.5948155482074,
        "timestamp": "2025-12-23T11:34:48.558352+00:00",
        "meta_object_name": "COSMOS 2251 DEB",
        "meta_object_id": "1993-036BTW",
        "meta_epoch": "2025-12-19T21:49:44.280192",
        "meta_mean_motion": 14.73429029,
        "meta_eccentricity": 0.0030516,
        "meta_inclination": 73.9403,
        "meta_ra_of_asc_node": 190.8021,
        "meta_arg_of_pericenter": 334.2314,
        "meta_mean_anomaly": 90.8371,
        "meta_ephemeris_type": 0,
        "meta_classification_type": "U",
        "meta_norad_cat_id": 38486,
        "meta_element_set_no": 999,
        "meta_rev_at_epoch": 75540,
        "meta_bstar": 0.0013432,
        "meta_mean_motion_dot": 8.756e-05,
        "meta_mean_motion_ddot": 0,
        "tle_line1": "1 38486U 93036BTW 25353.90954028  .00008756  00000+0  13432-2 0  9995",
        "tle_line2": "2 38486  73.9403 190.8021 0030516 334.2314  90.8371 14.73429029755403"
      },
      "geometry": {
        "type": "Point",
        "coordinates": [
          145.987777485078,
          -64.83207753962988
        ]
      }
    }
  ]
}